{
  "type": "FeatureCollection",
  "features": [
    {
      "type": "Feature",
      "properties": {
        "norad_id": 39227,
        "name": "ARIRANG-5 (KOMPSAT-5)",
        "group": "resource",
        "lat": -82.33673396887048,
        "lon": -91.00433601574461,
        "alt_km": 561.4806388699299,
        "timestamp": "2025-12-26T21:25:52.663412+00:00",
        "meta_object_name": "ARIRANG-5 (KOMPSAT-5)",
        "meta_object_id": "2013-042A",
        "meta_epoch": "2025-12-26T15:26:32.654400",
        "meta_mean_motion": 15.04491454,
        "meta_eccentricity": 0.00029398,
        "meta_inclination": 97.6166,
        "meta_ra_of_asc_node": 184.7498,
        "meta_arg_of_pericenter": 32.7441,
        "meta_mean_anomaly": 327.3967,
        "meta_ephemeris_type": 0,
        "meta_classification_type": "U",
        "meta_norad_cat_id": 39227,
        "meta_element_set_no": 999,
        "meta_rev_at_epoch": 67791,
        "meta_bstar": 0.00019118068,
        "meta_mean_motion_dot": 2.615e-05,
        "meta_mean_motion_ddot": 0,
        "tle_line1": "1 39227U 13042A   25360.64343350  .00002615  00000+0  19118-3 0  9993",
        "tle_line2": "2 39227  97.6166 184.7498 0002939  32.7441 327.3967 15.04491454677919"
      },
      "geometry": {
        "type": "Point",
        "coordinates": [
          -91.00433601574461,
          -82.33673396887048
        ]
      }
    },
    {
      "type": "Feature",
      "properties": {
        "norad_id": 39418,
        "name": "SKYSAT-A",
        "group": "resource",
        "lat": -71.46069560295423,
        "lon": 73.50080859649837,
        "alt_km": 541.1625052062318,
        "timestamp": "2025-12-26T21:25:52.663423+00:00",
        "meta_object_name": "SKYSAT-A",
        "meta_object_id": "2013-066C",
        "meta_epoch": "2025-12-26T13:48:41.273280",
        "meta_mean_motion": 15.11702168,
        "meta_eccentricity": 0.00217913,
        "meta_inclination": 97.4086,
        "meta_ra_of_asc_node": 50.3627,
        "meta_arg_of_pericenter": 187.1563,
        "meta_mean_anomaly": 172.9359,
        "meta_ephemeris_type": 0,
        "meta_classification_type": "U",
        "meta_norad_cat_id": 39418,
        "meta_element_set_no": 999,
        "meta_rev_at_epoch": 66239,
        "meta_bstar": 0.00022806876,
        "meta_mean_motion_dot": 3.841e-05,
        "meta_mean_motion_ddot": 0,
        "tle_line1": "1 39418U 13066C   25360.57547770  .00003841  00000+0  22807-3 0  9996",
        "tle_line2": "2 39418  97.4086  50.3627 0021791 187.1563 172.9359 15.11702168662399"
      },
      "geometry": {
        "type": "Point",
        "coordinates": [
          73.50080859649837,
          -71.46069560295423
        ]
      }
    },
    {
      "type": "Feature",
      "properties": {
        "norad_id": 39419,
        "name": "DUBAISAT-2",
        "group": "resource",
        "lat": -80.8153610913025,
        "lon": 116.87207564043865,
        "alt_km": 541.4303521955253,
        "timestamp": "2025-12-26T21:25:52.663433+00:00",
        "meta_object_name": "DUBAISAT-2",
        "meta_object_id": "2013-066D",
        "meta_epoch": "2025-12-26T13:53:35.516256",
        "meta_mean_motion": 15.08489554,
        "meta_eccentricity": 0.00097448,
        "meta_inclination": 97.4468,
        "meta_ra_of_asc_node": 350.5607,
        "meta_arg_of_pericenter": 267.4495,
        "meta_mean_anomaly": 92.5618,
        "meta_ephemeris_type": 0,
        "meta_classification_type": "U",
        "meta_norad_cat_id": 39419,
        "meta_element_set_no": 999,
        "meta_rev_at_epoch": 66035,
        "meta_bstar": 0.00033138597,
        "meta_mean_motion_dot": 5.111e-05,
        "meta_mean_motion_ddot": 0,
        "tle_line1": "1 39419U 13066D   25360.57888329  .00005111  00000+0  33139-3 0  9997",
        "tle_line2": "2 39419  97.4468 350.5607 0009744 267.4495  92.5618 15.08489554660353"
      },
      "geometry": {
        "type": "Point",
        "coordinates": [
          116.87207564043865,
          -80.8153610913025
        ]
      }
    },
    {
      "type": "Feature",
      "properties": {
        "norad_id": 39574,
        "name": "GPM-CORE",
        "group": "resource",
        "lat": 48.1094767850418,
        "lon": -46.10838337525098,
        "alt_km": 430.67972466424817,
        "timestamp": "2025-12-26T21:25:52.663443+00:00",
        "meta_object_name": "GPM-CORE",
        "meta_object_id": "2014-009C",
        "meta_epoch": "2025-12-26T14:40:39.011232",
        "meta_mean_motion": 15.44684672,
        "meta_eccentricity": 0.00090272,
        "meta_inclination": 64.9729,
        "meta_ra_of_asc_node": 166.226,
        "meta_arg_of_pericenter": 251.5554,
        "meta_mean_anomaly": 108.4606,
        "meta_ephemeris_type": 0,
        "meta_classification_type": "U",
        "meta_norad_cat_id": 39574,
        "meta_element_set_no": 999,
        "meta_rev_at_epoch": 67115,
        "meta_bstar": 0.00020093828,
        "meta_mean_motion_dot": 9.194e-05,
        "meta_mean_motion_ddot": 0,
        "tle_line1": "1 39574U 14009C   25360.61156263  .00009194  00000+0  20094-3 0  9998",
        "tle_line2": "2 39574  64.9729 166.2260 0009027 251.5554 108.4606 15.44684672671157"
      },
      "geometry": {
        "type": "Point",
        "coordinates": [
          -46.10838337525098,
          48.1094767850418
        ]
      }
    },
    {
      "type": "Feature",
      "properties": {
        "norad_id": 39634,
        "name": "SENTINEL-1A",
        "group": "resource",
        "lat": -81.6825020157502,
        "lon": 106.20379636887066,
        "alt_km": 703.9944637598019,
        "timestamp": "2025-12-26T21:25:52.663453+00:00",
        "meta_object_name": "SENTINEL-1A",
        "meta_object_id": "2014-016A",
        "meta_epoch": "2025-12-26T15:16:02.121024",
        "meta_mean_motion": 14.59199591,
        "meta_eccentricity": 0.00012596,
        "meta_inclination": 98.1805,
        "meta_ra_of_asc_node": 5.6718,
        "meta_arg_of_pericenter": 84.0509,
        "meta_mean_anomaly": 276.0835,
        "meta_ephemeris_type": 0,
        "meta_classification_type": "U",
        "meta_norad_cat_id": 39634,
        "meta_element_set_no": 999,
        "meta_rev_at_epoch": 62485,
        "meta_bstar": 9.33976e-07,
        "meta_mean_motion_dot": -4.1e-07,
        "meta_mean_motion_ddot": 0,
        "tle_line1": "1 39634U 14016A   25360.63613566 -.00000041  00000+0  93398-6 0  9992",
        "tle_line2": "2 39634  98.1805   5.6718 0001259  84.0509 276.0835 14.59199591624857"
      },
      "geometry": {
        "type": "Point",
        "coordinates": [
          106.20379636887066,
          -81.6825020157502
        ]
      }
    },
    {
      "type": "Feature",
      "properties": {
        "norad_id": 39731,
        "name": "KAZEOSAT 1",
        "group": "resource",
        "lat": 81.53366154797169,
        "lon": -27.237358200246675,
        "alt_km": 743.3193383899306,
        "timestamp": "2025-12-26T21:25:52.663463+00:00",
        "meta_object_name": "KAZEOSAT 1",
        "meta_object_id": "2014-024A",
        "meta_epoch": "2025-12-26T14:20:53.009664",
        "meta_mean_motion": 14.42071202,
        "meta_eccentricity": 0.00012401,
        "meta_inclination": 98.3412,
        "meta_ra_of_asc_node": 72.1933,
        "meta_arg_of_pericenter": 96.0738,
        "meta_mean_anomaly": 264.0593,
        "meta_ephemeris_type": 0,
        "meta_classification_type": "U",
        "meta_norad_cat_id": 39731,
        "meta_element_set_no": 999,
        "meta_rev_at_epoch": 61368,
        "meta_bstar": 0.00016433914,
        "meta_mean_motion_dot": 4.97e-06,
        "meta_mean_motion_ddot": 0,
        "tle_line1": "1 39731U 14024A   25360.59783576  .00000497  00000+0  16434-3 0  9990",
        "tle_line2": "2 39731  98.3412  72.1933 0001240  96.0738 264.0593 14.42071202613683"
      },
      "geometry": {
        "type": "Point",
        "coordinates": [
          -27.237358200246675,
          81.53366154797169
        ]
      }
    },
    {
      "type": "Feature",
      "properties": {
        "norad_id": 39766,
        "name": "ALOS-2",
        "group": "resource",
        "lat": 75.7460394856417,
        "lon": 62.299594426555046,
        "alt_km": 622.8875166830721,
        "timestamp": "2025-12-26T21:25:52.663473+00:00",
        "meta_object_name": "ALOS-2",
        "meta_object_id": "2014-029A",
        "meta_epoch": "2025-12-26T14:35:12.631776",
        "meta_mean_motion": 14.79474888,
        "meta_eccentricity": 0.00013761,
        "meta_inclination": 97.9218,
        "meta_ra_of_asc_node": 95.2561,
        "meta_arg_of_pericenter": 97.9801,
        "meta_mean_anomaly": 262.1567,
        "meta_ephemeris_type": 0,
        "meta_classification_type": "U",
        "meta_norad_cat_id": 39766,
        "meta_element_set_no": 999,
        "meta_rev_at_epoch": 62606,
        "meta_bstar": 0.00031470414,
        "meta_mean_motion_dot": 2.3e-05,
        "meta_mean_motion_ddot": 0,
        "tle_line1": "1 39766U 14029A   25360.60778509  .00002300  00000+0  31470-3 0  9997",
        "tle_line2": "2 39766  97.9218  95.2561 0001376  97.9801 262.1567 14.79474888626067"
      },
      "geometry": {
        "type": "Point",
        "coordinates": [
          62.299594426555046,
          75.7460394856417
        ]
      }
    }
  ]
}